[{"OBJECT_NAME":"STARLINK-5163","OBJECT_ID":"2022-136D","EPOCH":"2026-03-09T21:33:28.391328","MEAN_MOTION":15.08836257,"ECCENTRICITY":0.00014116,"INCLINATION":53.2199,"RA_OF_ASC_NODE":343.3117,"ARG_OF_PERICENTER":81.2422,"MEAN_ANOMALY":278.873,"EPHEMERIS_TYPE":0,"CLASSIFICATION_TYPE":"U","NORAD_CAT_ID":54054,"ELEMENT_SET_NO":999,"REV_AT_EPOCH":18687,"BSTAR":-8.256175e-6,"MEAN_MOTION_DOT":-4.19e-6,"MEAN_MOTION_DDOT":0},{"OBJECT_NAME":"CSC-1","OBJECT_ID":"2023-155G","EPOCH":"2026-03-09T17:46:02.342496","MEAN_MOTION":15.1003596,"ECCENTRICITY":0.00075041,"INCLINATION":97.5446,"RA_OF_ASC_NODE":139.7305,"ARG_OF_PERICENTER":212.9992,"MEAN_ANOMALY":147.077,"EPHEMERIS_TYPE":0,"CLASSIFICATION_TYPE":"U","NORAD_CAT_ID":58022,"ELEMENT_SET_NO":999,"REV_AT_EPOCH":13272,"BSTAR":0.00054556609,"MEAN_MOTION_DOT":8.819e-5,"MEAN_MOTION_DDOT":0}]
